[{"OBJECT_NAME":"STARLINK-5293","OBJECT_ID":"2023-010AC","EPOCH":"2026-03-09T16:42:54.798912","MEAN_MOTION":14.98333796,"ECCENTRICITY":0.00030534,"INCLINATION":70.0001,"RA_OF_ASC_NODE":44.5723,"ARG_OF_PERICENTER":264.6455,"MEAN_ANOMALY":95.4356,"EPHEMERIS_TYPE":0,"CLASSIFICATION_TYPE":"U","NORAD_CAT_ID":55295,"ELEMENT_SET_NO":999,"REV_AT_EPOCH":17278,"BSTAR":8.9593863e-5,"MEAN_MOTION_DOT":9.76e-6,"MEAN_MOTION_DDOT":0},{"OBJECT_NAME":"COSMOS 2251 DEB","OBJECT_ID":"1993-036AWS","EPOCH":"2026-03-08T21:06:04.726368","MEAN_MOTION":14.95261151,"ECCENTRICITY":0.00284276,"INCLINATION":73.9951,"RA_OF_ASC_NODE":273.3001,"ARG_OF_PERICENTER":6.025,"MEAN_ANOMALY":354.1269,"EPHEMERIS_TYPE":0,"CLASSIFICATION_TYPE":"U","NORAD_CAT_ID":36000,"ELEMENT_SET_NO":999,"REV_AT_EPOCH":61455,"BSTAR":0.0026863031,"MEAN_MOTION_DOT":0.00029903,"MEAN_MOTION_DDOT":0}]
